[{"OBJECT_NAME":"LAPAN-A3","OBJECT_ID":"2016-040E","EPOCH":"2026-03-09T23:01:57.724896","MEAN_MOTION":15.3238951,"ECCENTRICITY":0.00109839,"INCLINATION":97.1488,"RA_OF_ASC_NODE":68.4254,"ARG_OF_PERICENTER":22.062,"MEAN_ANOMALY":338.1093,"EPHEMERIS_TYPE":0,"CLASSIFICATION_TYPE":"U","NORAD_CAT_ID":41603,"ELEMENT_SET_NO":999,"REV_AT_EPOCH":53961,"BSTAR":0.00017567445,"MEAN_MOTION_DOT":5.428e-5,"MEAN_MOTION_DDOT":0},{"OBJECT_NAME":"STARLINK-35776","OBJECT_ID":"2025-247T","EPOCH":"2026-03-09T13:47:32.561088","MEAN_MOTION":15.30210742,"ECCENTRICITY":0.0004432,"INCLINATION":53.1585,"RA_OF_ASC_NODE":192.1456,"ARG_OF_PERICENTER":169.0522,"MEAN_ANOMALY":191.0576,"EPHEMERIS_TYPE":0,"CLASSIFICATION_TYPE":"U","NORAD_CAT_ID":66282,"ELEMENT_SET_NO":999,"REV_AT_EPOCH":2101,"BSTAR":0.00091943,"MEAN_MOTION_DOT":0.00026985,"MEAN_MOTION_DDOT":0}]
